IRIDIUM 116             
1 43072U 17083C   26022.46854365  .00000198  00000+0  63798-4 0  9992
2 43072  86.3953  22.8955 0002110  79.6193 280.5241 14.34218091423286
IRIDIUM 130             
1 43073U 17083D   26022.43684050  .00000156  00000+0  48777-4 0  9996
2 43073  86.3962  23.1699 0002317  82.1959 277.9500 14.34218918423224
IRIDIUM 151             
1 43074U 17083E   26022.48123853  .00000094  00000+0  26592-4 0  9993
2 43074  86.3956  22.9448 0002150  88.5665 271.5777 14.34218433423257
IRIDIUM 134             
1 43075U 17083F   26022.44952407  .00000198  00000+0  63706-4 0  9998
2 43075  86.3957  22.9642 0002290  85.6382 274.5075 14.34219551423216
IRIDIUM 137             
1 43076U 17083G   26022.46220989  .00000168  00000+0  53019-4 0  9997
2 43076  86.3958  23.0488 0001725  80.2022 279.9369 14.34217378423289
IRIDIUM 141             
1 43077U 17083H   26022.45586789  .00000050  00000+0  10636-4 0  9998
2 43077  86.3955  22.8902 0002247  91.9098 268.2355 14.34218144423285
IRIDIUM 153             
1 43078U 17083J   26022.26850420  .00000511  00000+0  17531-3 0  9996
2 43078  86.3993 351.4676 0002472  90.8245 269.3234 14.34218679424360
IRIDIUM 131             
1 43079U 17083K   26022.44318418  .00000220  00000+0  71429-4 0  9997
2 43079  86.3957  23.0725 0002253  88.7132 271.4322 14.34215455423210
